ORBCOMM FM33            
1 25983U 99065D   24219.84355891  .00002146  00000+0  74831-3 0  9995
2 25983  45.0292  51.4673 0008187 274.3121  85.6792 14.38051763290850
ORBCOMM FM36            
1 25984U 99065E   24220.08164718  .00002667  00000+0  95808-3 0  9995
2 25984  45.0390 137.3421 0002214 147.8900 212.2083 14.35977121289827
ORBCOMM FM35            
1 25985U 99065F   24219.87445430  .00001776  00000+0  66127-3 0  9996
2 25985  45.0390 141.2905 0003666 283.6855  76.3584 14.35445881289591
ORBCOMM FM34            
1 25986U 99065G   24219.84650190  .00002052  00000+0  75645-3 0  9998
2 25986  45.0384 141.9713 0002747 225.2353 134.8272 14.35428679289740
ORBCOMM FM38            
1 33060U 08031A   24219.86744871  .00003946  00000+0  56753-3 0  9997
2 33060  48.4421  10.0103 0005065 141.1542 218.9737 14.78141981868199
ORBCOMM FM41            
1 33061U 08031B   24219.95651287  .00004044  00000+0  58470-3 0  9994
2 33061  48.4454  16.4200 0004088 127.3413  16.0116 14.77862901868145
ORBCOMM FM29            
1 33062U 08031C   24219.87498064  .00004163  00000+0  60164-3 0  9993
2 33062  48.4404  24.8394 0005935 122.2366 351.0527 14.77816732867600
ORBCOMM FM39            
1 33063U 08031D   24219.88133791  .00003275  00000+0  49161-3 0  9995
2 33063  48.4410  46.0204 0006781  93.6481 266.5208 14.76737503867291
